     3.00           N: GNSS NAV DATA    E: Galileo          RINEX VERSION / TYPE
PREC2NAV                                20121215 063337 UTC PGM / RUN BY / DATE 
SOURCE: data/tum%W%D.sp3                                    COMMENT             
                                                            END OF HEADER       
E12 2012 12  3 14  0  0  .646828242920E-03  .851341794872E-10  .000000000000E+00
      .800000000000E+01 -.962252262187E+02  .308592600460E-08  .206710621417E+01
     -.434742915057E-05  .721914941833E-04  .114734092950E-04  .544062004960E+04
      .136800000000E+06 -.109186629054E-07  .822476951771E+00  .204020677721E-07
      .956640866146E+00  .936809375214E+02 -.261167478133E+01 -.546684442958E-08
      .302541304217E-09  .000000000000E+00  .171700000000E+04  .000000000000E+00
      .240000000000E+01  .000000000000E+00  .000000000000E+00  .000000000000E+00
      .140400000000E+06  .000000000000E+00
E11 2012 12  3 16  0  0 -.134316971320E-03  .825576897436E-10  .000000000000E+00
      .900000000000E+01 -.960653136193E+02  .308614819289E-08 -.185797890251E+01
     -.433915694771E-05  .969715819160E-04  .116039813694E-04  .544062141595E+04
      .144000000000E+06  .361586753874E-08  .822463837171E+00  .382761829887E-08
      .956631178104E+00  .909173121605E+02  .150174259746E+01 -.546410318785E-08
      .304954128272E-09  .000000000000E+00  .171700000000E+04  .000000000000E+00
      .240000000000E+01  .000000000000E+00  .000000000000E+00  .000000000000E+00
      .147600000000E+06  .000000000000E+00
E12 2012 12  3 16  0  0  .647440920960E-03  .850618000000E-10  .000000000000E+00
      .900000000000E+01 -.891792611835E+02  .314971613738E-08  .298961076152E+01
     -.403383577021E-05  .750708338246E-04  .126426606004E-04  .544061256932E+04
      .144000000000E+06  .120306277895E-07  .822437683194E+00  .272733150040E-08
      .956643256238E+00  .687989958549E+02 -.264155623938E+01 -.543380384658E-08
      .308065124529E-09  .000000000000E+00  .171700000000E+04  .000000000000E+00
      .240000000000E+01  .000000000000E+00  .000000000000E+00  .000000000000E+00
      .147600000000E+06  .000000000000E+00
E11 2012 12  3 18  0  0 -.133722809680E-03  .824985333333E-10  .000000000000E+00
      .100000000000E+02 -.903251413524E+02  .311870911836E-08 -.990324203646E+00
     -.411686272817E-05  .972368886374E-04  .124815565175E-04  .544061654440E+04
      .151200000000E+06  .213016893386E-07  .822424584289E+00  .574970969569E-08
      .956633487939E+00  .727551061214E+02  .152671018943E+01 -.544360231355E-08
      .304144825884E-09  .000000000000E+00  .171700000000E+04  .000000000000E+00
      .240000000000E+01  .000000000000E+00  .000000000000E+00  .000000000000E+00
      .154800000000E+06  .000000000000E+00
E12 2012 12  3 18  0  0  .648053255440E-03  .850405615384E-10  .000000000000E+00
      .100000000000E+02 -.687242320029E+02  .299632470770E-08 -.239057207143E+01
     -.338376543344E-05  .723446691431E-04  .125774408786E-04  .544061839002E+04
      .151200000000E+06  .389986648517E-08  .822398683042E+00  .189463148632E-07
      .956645493204E+00  .694833248582E+02 -.265193587343E+01 -.542137309630E-08
      .300355334845E-09  .000000000000E+00  .171700000000E+04  .000000000000E+00
      .240000000000E+01  .000000000000E+00  .000000000000E+00  .000000000000E+00
      .154800000000E+06  .000000000000E+00
E11 2012 12  3 20  0  0 -.133128867360E-03  .824934846154E-10  .000000000000E+00
      .110000000000E+02 -.715827457576E+02  .296619273985E-08 -.805030542017E-01
     -.354584135714E-05  .989523052060E-04  .123020183315E-04  .544062135113E+04
      .158400000000E+06 -.919935675218E-08  .822385687736E+00  .465486545194E-08
      .956635686633E+00  .739364473753E+02  .150950917410E+01 -.542298939890E-08
      .275783619591E-09  .000000000000E+00  .171700000000E+04  .000000000000E+00
      .240000000000E+01  .000000000000E+00  .000000000000E+00  .000000000000E+00
      .162000000000E+06  .000000000000E+00
E12 2012 12  3 20  0  0  .648665448080E-03  .850011102564E-10  .000000000000E+00
      .110000000000E+02 -.588595389324E+02  .304464276996E-08 -.155330355031E+01
     -.290170210180E-05  .738366273936E-04  .110301705678E-04  .544060945190E+04
      .158400000000E+06  .108097061563E-07  .822359834886E+00 -.976054299600E-08
      .956647539790E+00  .982155924097E+02 -.259658146375E+01 -.542385943886E-08
      .273261224763E-09  .000000000000E+00  .171700000000E+04  .000000000000E+00
      .240000000000E+01  .000000000000E+00  .000000000000E+00  .000000000000E+00
      .162000000000E+06  .000000000000E+00
E11 2012 12  3 22  0  0 -.132535134920E-03  .824292717949E-10  .000000000000E+00
      .120000000000E+02 -.563118024426E+02  .303561865971E-08  .826728417594E+00
     -.275005367566E-05  .947822378855E-04  .109035340090E-04  .544061221908E+04
      .165600000000E+06  .283066852278E-07  .822346840485E+00 -.134925335529E-07
      .956637506730E+00  .100916843997E+03  .149489960432E+01 -.543889418151E-08
      .242376938185E-09  .000000000000E+00  .171700000000E+04  .000000000000E+00
      .240000000000E+01  .000000000000E+00  .000000000000E+00  .000000000000E+00
      .169200000000E+06  .000000000000E+00
E12 2012 12  3 22  0  0  .649277443120E-03  .850161205128E-10  .000000000000E+00
      .120000000000E+02 -.656884071276E+02  .296659868902E-08 -.645024218705E+00
     -.302709571659E-05  .750606493519E-04  .105693423515E-04  .544061273738E+04
      .165600000000E+06  .154125587377E-07  .822320817357E+00  .229973327261E-07
      .956649286124E+00  .110442629077E+03 -.261223549303E+01 -.545494264657E-08
      .256844745164E-09  .000000000000E+00  .171700000000E+04  .000000000000E+00
      .240000000000E+01  .000000000000E+00  .000000000000E+00  .000000000000E+00
      .169200000000E+06  .000000000000E+00
E11 2012 12  4  0  0  0 -.131941680440E-03  .824309589744E-10  .000000000000E+00
      .130000000000E+02 -.655630927835E+02  .284899440607E-08  .169324321085E+01
     -.302453046783E-05  .952879303542E-04  .103148990239E-04  .544061741811E+04
      .172800000000E+06  .207784407362E-06  .822307753487E+00  .596675427011E-07
      .956639868855E+00  .116787222484E+03 -.476217758953E+01 -.531582851964E-08
      .222155350357E-09  .000000000000E+00  .171700000000E+04  .000000000000E+00
      .240000000000E+01  .000000000000E+00  .000000000000E+00  .000000000000E+00
      .176400000000E+06  .000000000000E+00
E12 2012 12  4  0  0  0  .649889620720E-03  .849804025641E-10  .000000000000E+00
      .130000000000E+02 -.720659787570E+02  .282003474852E-08  .255179030841E+00
     -.329065307217E-05  .749820581556E-04  .104119020655E-04  .544061280564E+04
      .172800000000E+06 -.250626565800E-06  .822283046597E+00  .329665757526E-06
      .956652085642E+00  .115702195995E+03 -.261981697405E+01 -.522197208140E-08
      .742529555503E-10  .000000000000E+00  .171700000000E+04  .000000000000E+00
      .240000000000E+01  .000000000000E+00  .000000000000E+00  .000000000000E+00
      .176400000000E+06  .000000000000E+00
